54671,ONEWEB-0607,2022,108.94,148.0,+,87.93,Active,1,LEO,USA,UK,Commercial,Communications,Falcon,1 54671U 22166AF  25014.45386683  .00000033  00000+0  49564-4 0  9992,2 54671  87.9314 347.3237 0001760  77.9067 282.2264 13.21823876103018,13.21823876,0.000176,LEO
54672,ONEWEB-0608,2022,108.94,148.0,+,87.93,Active,1,LEO,USA,UK,Commercial,Communications,Falcon,1 54672U 22166AG  25014.46016359  .00000053  00000+0  95869-4 0  9995,2 54672  87.9297 347.3385 0001918  68.6608 291.4730 13.21827008103028,13.21827008,0.0001918,LEO
54673,ONEWEB-0610,2022,108.94,148.0,+,87.93,Active,1,LEO,USA,UK,Commercial,Communications,Falcon,1 54673U 22166AH  25014.44124173 -.00000110  00000+0 -29759-3 0  9998,2 54673  87.9315 347.3443 0001962  68.7957 291.3386 13.21824373102928,13.21824373,0.0001962,LEO
54674,ONEWEB-0611,2022,108.94,148.0,+,87.93,Active,1,LEO,USA,UK,Commercial,Communications,Falcon,1 54674U 22166AJ  25014.43494669  .00000034  00000+0  51269-4 0  9993,2 54674  87.9315 347.3433 0001722  93.5277 266.6053 13.21826912102919,13.21826912,0.0001722,LEO
54675,ONEWEB-0612,2022,108.94,148.0,+,87.93,Active,1,LEO,USA,UK,Commercial,Communications,Falcon,1 54675U 22166AK  25014.44754759 -.00000285  00000+0 -72262-3 0  9999,2 54675  87.9313 347.3206 0001815  75.4420 284.6915 13.21825548102908,13.21825548,0.0001815,LEO
54676,ONEWEB-0615,2022,108.94,148.0,+,87.93,Active,1,LEO,USA,UK,Commercial,Communications,Falcon,1 54676U 22166AL  25014.42862245  .00000004  00000+0 -22267-4 0  9997,2 54676  87.9314 347.3499 0001647  76.6625 283.4692 13.21826792102919,13.21826792,0.0001647,LEO
54677,ONEWEB-0655,2022,108.94,148.0,+,87.93,Active,1,LEO,USA,UK,Commercial,Communications,Falcon,1 54677U 22166AM  25014.47752996  .00000059  00000+0  11057-3 0  9997,2 54677  87.9316 347.3434 0001495  75.6241 284.5058 13.21827238102919,13.21827238,0.0001495,LEO
54678,ONEWEB-0659,2022,108.94,148.0,+,87.93,Active,1,LEO,USA,UK,Commercial,Communications,Falcon,1 54678U 22166AN  25014.41915994  .00000087  00000+0  18017-3 0  9995,2 54678  87.9313 347.3586 0001942  86.7472 273.3884 13.21828155102991,13.21828155,0.0001942,LEO
